[{"OBJECT_NAME":"STARLINK-37021","OBJECT_ID":"2026-044E","EPOCH":"2026-03-28T19:57:27.933120","MEAN_MOTION":15.73801773,"ECCENTRICITY":0.0002038,"INCLINATION":97.2842,"RA_OF_ASC_NODE":48.919,"ARG_OF_PERICENTER":143.2581,"MEAN_ANOMALY":216.8823,"EPHEMERIS_TYPE":0,"CLASSIFICATION_TYPE":"U","NORAD_CAT_ID":68105,"ELEMENT_SET_NO":999,"REV_AT_EPOCH":449,"BSTAR":-0.0040909,"MEAN_MOTION_DOT":-0.00540025,"MEAN_MOTION_DDOT":0},{"OBJECT_NAME":"STARLINK-37024","OBJECT_ID":"2026-044F","EPOCH":"2026-03-28T19:55:31.974816","MEAN_MOTION":15.75299761,"ECCENTRICITY":0.0001677,"INCLINATION":97.284,"RA_OF_ASC_NODE":48.9206,"ARG_OF_PERICENTER":112.1805,"MEAN_ANOMALY":247.9638,"EPHEMERIS_TYPE":0,"CLASSIFICATION_TYPE":"U","NORAD_CAT_ID":68106,"ELEMENT_SET_NO":999,"REV_AT_EPOCH":449,"BSTAR":0.0021101,"MEAN_MOTION_DOT":0.00328585,"MEAN_MOTION_DDOT":0},{"OBJECT_NAME":"STARLINK-37005","OBJECT_ID":"2026-044G","EPOCH":"2026-03-28T19:59:39.058080","MEAN_MOTION":15.74932695,"ECCENTRICITY":0.0001916,"INCLINATION":97.2841,"RA_OF_ASC_NODE":48.9172,"ARG_OF_PERICENTER":119.0839,"MEAN_ANOMALY":241.0618,"EPHEMERIS_TYPE":0,"CLASSIFICATION_TYPE":"U","NORAD_CAT_ID":68107,"ELEMENT_SET_NO":999,"REV_AT_EPOCH":449,"BSTAR":-0.0014688,"MEAN_MOTION_DOT":-0.00211533,"MEAN_MOTION_DDOT":0},{"OBJECT_NAME":"STARLINK-37017","OBJECT_ID":"2026-044H","EPOCH":"2026-03-28T19:55:01.626816","MEAN_MOTION":15.75238549,"ECCENTRICITY":0.0001473,"INCLINATION":97.2841,"RA_OF_ASC_NODE":48.9218,"ARG_OF_PERICENTER":108.6323,"MEAN_ANOMALY":251.5102,"EPHEMERIS_TYPE":0,"CLASSIFICATION_TYPE":"U","NORAD_CAT_ID":68108,"ELEMENT_SET_NO":999,"REV_AT_EPOCH":449,"BSTAR":0.0011972,"MEAN_MOTION_DOT":0.00182696,"MEAN_MOTION_DDOT":0},{"OBJECT_NAME":"STARLINK-36833","OBJECT_ID":"2026-044J","EPOCH":"2026-03-28T19:52:59.771712","MEAN_MOTION":15.75227375,"ECCENTRICITY":0.0001248,"INCLINATION":97.2846,"RA_OF_ASC_NODE":48.9226,"ARG_OF_PERICENTER":107.9313,"MEAN_ANOMALY":252.2088,"EPHEMERIS_TYPE":0,"CLASSIFICATION_TYPE":"U","NORAD_CAT_ID":68109,"ELEMENT_SET_NO":999,"REV_AT_EPOCH":449,"BSTAR":0.0010854,"MEAN_MOTION_DOT":0.00165203,"MEAN_MOTION_DDOT":0},{"OBJECT_NAME":"STARLINK-36830","OBJECT_ID":"2026-044K","EPOCH":"2026-03-28T19:54:00.332928","MEAN_MOTION":15.75265076,"ECCENTRICITY":0.0001673,"INCLINATION":97.2846,"RA_OF_ASC_NODE":48.922,"ARG_OF_PERICENTER":119.5751,"MEAN_ANOMALY":240.5682,"EPHEMERIS_TYPE":0,"CLASSIFICATION_TYPE":"U","NORAD_CAT_ID":68110,"ELEMENT_SET_NO":999,"REV_AT_EPOCH":449,"BSTAR":0.0013102,"MEAN_MOTION_DOT":0.00200608,"MEAN_MOTION_DDOT":0},{"OBJECT_NAME":"STARLINK-36791","OBJECT_ID":"2026-044L","EPOCH":"2026-03-28T21:22:26.663232","MEAN_MOTION":15.75191897,"ECCENTRICITY":0.0001387,"INCLINATION":97.2846,"RA_OF_ASC_NODE":48.992,"ARG_OF_PERICENTER":97.2515,"MEAN_ANOMALY":262.8908,"EPHEMERIS_TYPE":0,"CLASSIFICATION_TYPE":"U","NORAD_CAT_ID":68111,"ELEMENT_SET_NO":999,"REV_AT_EPOCH":450,"BSTAR":0.00048393,"MEAN_MOTION_DOT":0.00072674,"MEAN_MOTION_DDOT":0},{"OBJECT_NAME":"STARLINK-36893","OBJECT_ID":"2026-044M","EPOCH":"2026-03-28T19:49:25.886784","MEAN_MOTION":15.75235164,"ECCENTRICITY":0.0001544,"INCLINATION":97.2848,"RA_OF_ASC_NODE":48.9256,"ARG_OF_PERICENTER":105.1586,"MEAN_ANOMALY":254.985,"EPHEMERIS_TYPE":0,"CLASSIFICATION_TYPE":"U","NORAD_CAT_ID":68112,"ELEMENT_SET_NO":999,"REV_AT_EPOCH":449,"BSTAR":0.00070153,"MEAN_MOTION_DOT":0.00106024,"MEAN_MOTION_DDOT":0},{"OBJECT_NAME":"STARLINK-36937","OBJECT_ID":"2026-044N","EPOCH":"2026-03-28T19:47:54.791808","MEAN_MOTION":15.75270235,"ECCENTRICITY":9.93e-5,"INCLINATION":97.2846,"RA_OF_ASC_NODE":48.9273,"ARG_OF_PERICENTER":100.9212,"MEAN_ANOMALY":259.2165,"EPHEMERIS_TYPE":0,"CLASSIFICATION_TYPE":"U","NORAD_CAT_ID":68113,"ELEMENT_SET_NO":999,"REV_AT_EPOCH":449,"BSTAR":0.001949,"MEAN_MOTION_DOT":0.0030215,"MEAN_MOTION_DDOT":0},{"OBJECT_NAME":"STARLINK-36229","OBJECT_ID":"2026-044P","EPOCH":"2026-03-28T19:48:25.072416","MEAN_MOTION":15.75224261,"ECCENTRICITY":0.00014,"INCLINATION":97.2851,"RA_OF_ASC_NODE":48.926,"ARG_OF_PERICENTER":107.0661,"MEAN_ANOMALY":253.0758,"EPHEMERIS_TYPE":0,"CLASSIFICATION_TYPE":"U","NORAD_CAT_ID":68114,"ELEMENT_SET_NO":999,"REV_AT_EPOCH":449,"BSTAR":0.00075535,"MEAN_MOTION_DOT":0.00114223,"MEAN_MOTION_DDOT":0},{"OBJECT_NAME":"STARLINK-36392","OBJECT_ID":"2026-044Q","EPOCH":"2026-03-28T21:17:57.195456","MEAN_MOTION":15.74701445,"ECCENTRICITY":0.0001202,"INCLINATION":97.2849,"RA_OF_ASC_NODE":48.9952,"ARG_OF_PERICENTER":44.9797,"MEAN_ANOMALY":315.1565,"EPHEMERIS_TYPE":0,"CLASSIFICATION_TYPE":"U","NORAD_CAT_ID":68115,"ELEMENT_SET_NO":999,"REV_AT_EPOCH":450,"BSTAR":-0.0035145,"MEAN_MOTION_DOT":-0.0048525,"MEAN_MOTION_DDOT":0},{"OBJECT_NAME":"STARLINK-36805","OBJECT_ID":"2026-044R","EPOCH":"2026-03-28T19:45:52.913376","MEAN_MOTION":15.75280696,"ECCENTRICITY":0.0001395,"INCLINATION":97.2846,"RA_OF_ASC_NODE":48.9287,"ARG_OF_PERICENTER":113.7777,"MEAN_ANOMALY":246.3634,"EPHEMERIS_TYPE":0,"CLASSIFICATION_TYPE":"U","NORAD_CAT_ID":68116,"ELEMENT_SET_NO":999,"REV_AT_EPOCH":449,"BSTAR":0.0020345,"MEAN_MOTION_DOT":0.00316078,"MEAN_MOTION_DDOT":0},{"OBJECT_NAME":"STARLINK-36844","OBJECT_ID":"2026-044S","EPOCH":"2026-03-28T19:43:50.769696","MEAN_MOTION":15.75236742,"ECCENTRICITY":0.0001405,"INCLINATION":97.2847,"RA_OF_ASC_NODE":48.931,"ARG_OF_PERICENTER":90.5726,"MEAN_ANOMALY":269.57,"EPHEMERIS_TYPE":0,"CLASSIFICATION_TYPE":"U","NORAD_CAT_ID":68117,"ELEMENT_SET_NO":999,"REV_AT_EPOCH":449,"BSTAR":0.0010392,"MEAN_MOTION_DOT":0.00158098,"MEAN_MOTION_DDOT":0},{"OBJECT_NAME":"STARLINK-36789","OBJECT_ID":"2026-044T","EPOCH":"2026-03-28T20:00:01.999008","MEAN_MOTION":15.75111812,"ECCENTRICITY":0.0001294,"INCLINATION":97.2852,"RA_OF_ASC_NODE":48.9448,"ARG_OF_PERICENTER":72.8932,"MEAN_ANOMALY":352.9455,"EPHEMERIS_TYPE":0,"CLASSIFICATION_TYPE":"U","NORAD_CAT_ID":68118,"ELEMENT_SET_NO":999,"REV_AT_EPOCH":443,"BSTAR":0.0009798,"MEAN_MOTION_DOT":0.00148073,"MEAN_MOTION_DDOT":0},{"OBJECT_NAME":"STARLINK-36850","OBJECT_ID":"2026-044U","EPOCH":"2026-03-28T19:42:49.652064","MEAN_MOTION":15.75226262,"ECCENTRICITY":0.0001671,"INCLINATION":97.2852,"RA_OF_ASC_NODE":48.9313,"ARG_OF_PERICENTER":118.5682,"MEAN_ANOMALY":241.5752,"EPHEMERIS_TYPE":0,"CLASSIFICATION_TYPE":"U","NORAD_CAT_ID":68119,"ELEMENT_SET_NO":999,"REV_AT_EPOCH":449,"BSTAR":0.00079014,"MEAN_MOTION_DOT":0.00119578,"MEAN_MOTION_DDOT":0},{"OBJECT_NAME":"STARLINK-36868","OBJECT_ID":"2026-044V","EPOCH":"2026-03-28T21:12:16.961760","MEAN_MOTION":15.7522303,"ECCENTRICITY":6.83e-5,"INCLINATION":97.2848,"RA_OF_ASC_NODE":48.9997,"ARG_OF_PERICENTER":68.9743,"MEAN_ANOMALY":291.1595,"EPHEMERIS_TYPE":0,"CLASSIFICATION_TYPE":"U","NORAD_CAT_ID":68120,"ELEMENT_SET_NO":999,"REV_AT_EPOCH":450,"BSTAR":0.0013539,"MEAN_MOTION_DOT":0.00207078,"MEAN_MOTION_DDOT":0},{"OBJECT_NAME":"STARLINK-36855","OBJECT_ID":"2026-044W","EPOCH":"2026-03-28T19:39:46.750176","MEAN_MOTION":15.75226422,"ECCENTRICITY":0.0001343,"INCLINATION":97.2852,"RA_OF_ASC_NODE":48.9345,"ARG_OF_PERICENTER":98.0016,"MEAN_ANOMALY":262.1401,"EPHEMERIS_TYPE":0,"CLASSIFICATION_TYPE":"U","NORAD_CAT_ID":68121,"ELEMENT_SET_NO":999,"REV_AT_EPOCH":449,"BSTAR":0.00078125,"MEAN_MOTION_DOT":0.00118211,"MEAN_MOTION_DDOT":0}]
